NOAA 15                 
1 25338U 98030A   22202.51710362  .00000159  00000+0  84876-4 0  9995
2 25338  98.6421 231.6042 0010118 191.8895 168.2047 14.26152826258126
DMSP 5D-3 F15 (USA 147) 
1 25991U 99067A   22202.52730775  .00000154  00000+0  10013-3 0  9998
2 25991  99.0534 194.6871 0011238  91.7212   5.0707 14.16554612168617
METEOSAT-8 (MSG-1)      
1 27509U 02040B   22200.18521920  .00000123  00000+0  00000+0 0  9997
2 27509   8.0949  50.4917 0000237  79.3979 275.0860  1.00271175 72929
DMSP 5D-3 F16 (USA 172) 
1 28054U 03048A   22202.50503774  .00000020  00000+0  34386-4 0  9992
2 28054  98.9891 193.4926 0006571 214.6168 243.3804 14.13676897967835
NOAA 18                 
1 28654U 05018A   22202.48468731  .00000157  00000+0  10878-3 0  9997
2 28654  98.9478 272.8919 0013447 232.3568 127.6384 14.12755816884874
METEOSAT-9 (MSG-2)      
1 28912U 05049B   22202.16599810  .00000121  00000+0  00000+0 0  9999
2 28912   6.0936  66.0995 0000649 330.7625   7.5502  1.00266414 60760
EWS-G1 (GOES 13)        
1 29155U 06018A   22202.38431272  .00000037  00000+0  00000+0 0  9993
2 29155   0.6830  96.8098 0004563  90.3877 311.4369  1.00273900 59208
DMSP 5D-3 F17 (USA 191) 
1 29522U 06050A   22202.53553784  .00000019  00000+0  32615-4 0  9999
2 29522  98.7660 216.9511 0010209 158.1683 201.9927 14.14103710810727
FENGYUN 3A              
1 32958U 08026A   22202.46114412  .00000067  00000+0  52385-4 0  9993
2 32958  98.5042 163.7069 0007626 288.0294  72.0051 14.18728972733156
FENGYUN 2E              
1 33463U 08066A   22201.75790086 -.00000213  00000+0  00000+0 0  9993
2 33463   5.9771  65.1252 0003042  13.9755 218.9746  1.00274404 49776
NOAA 19                 
1 33591U 09005A   22202.48986903  .00000122  00000+0  91107-4 0  9996
2 33591  99.1457 237.3381 0014963  92.7464 267.5420 14.12590342693252
GOES 14                 
1 35491U 09033A   22202.52757674 -.00000094  00000+0  00000+0 0  9990
2 35491   0.3975  95.0837 0013752 115.9940 173.4884  1.00272959 47851
METEOR-M 1              
1 35865U 09049A   22202.44373908  .00000082  00000+0  55686-4 0  9998
2 35865  98.5298 171.8211 0003294 113.9004 246.2520 14.22345662666528
DMSP 5D-3 F18 (USA 210) 
1 35951U 09057A   22202.45217949  .00000212  00000+0  13542-3 0  9995
2 35951  98.7235 181.0032 0011064 356.9169   3.1934 14.13528669657918
GOES 15                 
1 36411U 10008A   22202.53868803  .00000052  00000+0  00000+0 0  9998
2 36411   0.3699 100.6874 0002350  38.7837 225.4303  1.00277597 45361
COMS 1                  
1 36744U 10032A   22201.75186323 -.00000349  00000+0  00000+0 0  9997
2 36744   1.1571  92.4360 0000896  48.9824 195.8736  1.00271064 36776
FENGYUN 3B              
1 37214U 10059A   22202.52271862  .00000016  00000+0  32439-4 0  9994
2 37214  99.0918 209.1004 0021236 258.8831 100.9948 14.14260383605778
SUOMI NPP               
1 37849U 11061A   22202.47037484  .00000055  00000+0  46717-4 0  9993
2 37849  98.7329 140.5524 0001152  89.8298  46.2506 14.19534604556012
FENGYUN 2F              
1 38049U 12002A   22202.53789709 -.00000360  00000+0  00000+0 0  9993
2 38049   3.8734  79.4568 0001940  23.6250 141.5863  1.00261056 38585
METEOSAT-10 (MSG-3)     
1 38552U 12035B   22202.23035785  .00000058  00000+0  00000+0 0  9996
2 38552   1.5709  43.1358 0000842  28.0232 320.3820  1.00262966 36911
METOP-B                 
1 38771U 12049A   22202.49427385  .00000069  00000+0  51683-4 0  9993
2 38771  98.6938 261.7402 0000838  57.5483  59.5497 14.21497004510562
FENGYUN 3C              
1 39260U 13052A   22202.54273281  .00000053  00000+0  47752-4 0  9997
2 39260  98.4523 228.9282 0011160 170.6660 189.4729 14.15932608456746
METEOR-M 2              
1 40069U 14037A   22202.48047289  .00000006  00000+0  22140-4 0  9992
2 40069  98.4303 218.7310 0004827 214.6676 145.4189 14.20713679416691
HIMAWARI-8              
1 40267U 14060A   22201.75439205 -.00000280  00000+0  00000+0 0  9991
2 40267   0.0154  87.4382 0000649  71.1280 192.1851  1.00269673 28440
FENGYUN 2G              
1 40367U 14090A   22202.26533053 -.00000307  00000+0  00000+0 0  9998
2 40367   2.0192  89.1864 0000862 283.0914 121.8468  1.00278701 27730
METEOSAT-11 (MSG-4)     
1 40732U 15034A   22202.30038837 -.00000005  00000+0  00000+0 0  9993
2 40732   0.3546  63.8130 0001601  23.4622 320.2368  1.00263005 25710
ELEKTRO-L 2             
1 41105U 15074A   22201.86696770 -.00000122  00000+0  00000+0 0  9998
2 41105   3.0706  87.7694 0002181  63.7630  84.6137  1.00270031 24208
HIMAWARI-9              
1 41836U 16064A   22201.75439205 -.00000279  00000+0  00000+0 0  9998
2 41836   0.0443 272.4700 0001241 233.8048 204.5361  1.00270302 20876
GOES 16                 
1 41866U 16071A   22202.50067282 -.00000250  00000+0  00000+0 0  9994
2 41866   0.0548 237.5532 0000589 296.5306 230.1857  1.00271774 20809
FENGYUN 4A              
1 41882U 16077A   22201.89068620 -.00000331  00000+0  00000+0 0  9996
2 41882   0.0595  62.0843 0003872  70.9760 230.5878  1.00262713 20676
CYGFM05                 
1 41884U 16078A   22201.82147003  .00003473  00000+0  17549-3 0  9994
2 41884  34.9572 353.9937 0014771  26.5002 333.6463 15.16487005309851
CYGFM04                 
1 41885U 16078B   22202.38827427  .00003164  00000+0  15768-3 0  9990
2 41885  34.9502 339.5054 0012897  49.1414 311.0414 15.17024121310147
CYGFM02                 
1 41886U 16078C   22201.85171032  .00003745  00000+0  18608-3 0  9997
2 41886  34.9594 345.0697 0013765  38.0939 322.0744 15.17059582309985
CYGFM01                 
1 41887U 16078D   22201.82766327  .00003437  00000+0  17458-3 0  9992
2 41887  34.9539 356.4004 0015212  26.0073 334.1401 15.16293922309800
CYGFM08                 
1 41888U 16078E   22202.52603057  .00003244  00000+0  16276-3 0  9994
2 41888  34.9508 344.5431 0014139  44.6349 315.5499 15.16767969310076
CYGFM06                 
1 41889U 16078F   22201.56846295  .00003668  00000+0  18228-3 0  9990
2 41889  34.9590 345.5108 0012768  35.0249 325.1300 15.17071696309880
CYGFM07                 
1 41890U 16078G   22202.47564925  .00003209  00000+0  15997-3 0  9991
2 41890  34.9523 338.6969 0012393  48.2825 311.8945 15.17009614310156
CYGFM03                 
1 41891U 16078H   22201.81632714  .00003471  00000+0  17299-3 0  9999
2 41891  34.9558 343.2903 0012016  39.7707 320.3884 15.16999256309896
FENGYUN 3D              
1 43010U 17072A   22202.47487388  .00000035  00000+0  38066-4 0  9996
2 43010  98.8174 146.9086 0002319 134.7031 225.4328 14.19213965242594
NOAA 20                 
1 43013U 17073A   22202.54924391  .00000024  00000+0  32304-4 0  9995
2 43013  98.7168 140.5723 0001053  63.1011 297.0273 14.19562471242069
GOES 17                 
1 43226U 18022A   22202.27300745  .00000095  00000+0  00000+0 0  9998
2 43226   0.0831 254.8568 0000284 276.9182  88.2157  1.00273007 16129
FENGYUN 2H              
1 43491U 18050A   22202.10096620 -.00000133  00000+0  00000+0 0  9993
2 43491   1.2324  96.5436 0004267  40.9304 277.0866  1.00270991 15200
METOP-C                 
1 43689U 18087A   22202.50836382  .00000069  00000+0  51425-4 0  9992
2 43689  98.6820 261.9337 0001713 320.4851  39.6201 14.21497144192146
GEO-KOMPSAT-2A          
1 43823U 18100A   22201.75195043 -.00000348  00000+0  00000+0 0  9995
2 43823   0.0168  79.5727 0001855  27.9643 229.9131  1.00267331 13301
METEOR-M2 2             
1 44387U 19038A   22202.44785684  .00000002  00000+0  20271-4 0  9998
2 44387  98.7249 162.9576 0001633 135.9575 224.1734 14.23714928158245
FENGYUN 3E              
1 49008U 21062A   22202.41144546 -.00000020  00000+0  11192-4 0  9999
2 49008  98.7109 203.8334 0000742 232.2422 127.8693 14.19734605 54139
GOES 18                 
1 51850U 22021A   22201.77078572  .00000093  00000+0  00000+0 0  9996
2 51850   0.0451 105.2921 0002680 106.2891 227.4426  1.00271626  1467
